[
  {
    "COMMENT": "GENERATED VIA SPACETRACK.ORG API",
    "ORIGINATOR": "18 SPCS",
    "NORAD_CAT_ID": "27421",
    "OBJECT_NAME": "SPOT 5",
    "OBJECT_TYPE": "PAYLOAD",
    "CLASSIFICATION_TYPE": "U",
    "INTLDES": "02021A",
    "EPOCH": "2023-08-06 04:13:08",
    "EPOCH_MICROSECONDS": "929920",
    "MEAN_MOTION": "14.52708101",
    "ECCENTRICITY": "0.0132442",
    "INCLINATION": "98.1365",
    "RA_OF_ASC_NODE": "279.7111",
    "ARG_OF_PERICENTER": "279.5601",
    "MEAN_ANOMALY": "79.0651",
    "EPHEMERIS_TYPE": "0",
    "ELEMENT_SET_NO": "999",
    "REV_AT_EPOCH": "11089",
    "BSTAR": "0.00010767",
    "MEAN_MOTION_DOT": "0.00000443",
    "MEAN_MOTION_DDOT": "0",
    "FILE": "3972752",
    "TLE_LINE0": "0 SPOT 5",
    "TLE_LINE1": "1 27421U 02021A   23218.17579780  .00000443  00000-0  10767-3 0  9996",
    "TLE_LINE2": "2 27421  98.1365 279.7111 0132442 279.5601  79.0651 14.52708101110890",
    "OBJECT_ID": "2002-021A",
    "OBJECT_NUMBER": "27421",
    "SEMIMAJOR_AXIS": "7094.954",
    "PERIOD": "99.125",
    "APOGEE": "810.786",
    "PERIGEE": "622.852",
    "DECAYED": "0"
  },
  {
    "COMMENT": "GENERATED VIA SPACETRACK.ORG API",
    "ORIGINATOR": "18 SPCS",
    "NORAD_CAT_ID": "27421",
    "OBJECT_NAME": "SPOT 5",
    "OBJECT_TYPE": "PAYLOAD",
    "CLASSIFICATION_TYPE": "U",
    "INTLDES": "02021A",
    "EPOCH": "2023-08-06 10:49:52",
    "EPOCH_MICROSECONDS": "973184",
    "MEAN_MOTION": "14.52708354",
    "ECCENTRICITY": "0.0132433",
    "INCLINATION": "98.1364",
    "RA_OF_ASC_NODE": "279.9785",
    "ARG_OF_PERICENTER": "278.7012",
    "MEAN_ANOMALY": "79.9203",
    "EPHEMERIS_TYPE": "0",
    "ELEMENT_SET_NO": "999",
    "REV_AT_EPOCH": "11093",
    "BSTAR": "0.00010658",
    "MEAN_MOTION_DOT": "0.00000438",
    "MEAN_MOTION_DDOT": "0",
    "FILE": "3973051",
    "TLE_LINE0": "0 SPOT 5",
    "TLE_LINE1": "1 27421U 02021A   23218.45130756  .00000438  00000-0  10658-3 0  9996",
    "TLE_LINE2": "2 27421  98.1364 279.9785 0132433 278.7012  79.9203 14.52708354110932",
    "OBJECT_ID": "2002-021A",
    "OBJECT_NUMBER": "27421",
    "SEMIMAJOR_AXIS": "7094.953",
    "PERIOD": "99.125",
    "APOGEE": "810.779",
    "PERIGEE": "622.858",
    "DECAYED": "0"
  },
  {
    "COMMENT": "GENERATED VIA SPACETRACK.ORG API",
    "ORIGINATOR": "18 SPCS",
    "NORAD_CAT_ID": "27421",
    "OBJECT_NAME": "SPOT 5",
    "OBJECT_TYPE": "PAYLOAD",
    "CLASSIFICATION_TYPE": "U",
    "INTLDES": "02021A",
    "EPOCH": "2023-08-06 19:05:48",
    "EPOCH_MICROSECONDS": "29856",
    "MEAN_MOTION": "14.52708656",
    "ECCENTRICITY": "0.0132428",
    "INCLINATION": "98.1364",
    "RA_OF_ASC_NODE": "280.3127",
    "ARG_OF_PERICENTER": "277.6284",
    "MEAN_ANOMALY": "80.9888",
    "EPHEMERIS_TYPE": "0",
    "ELEMENT_SET_NO": "999",
    "REV_AT_EPOCH": "11098",
    "BSTAR": "0.00010439",
    "MEAN_MOTION_DOT": "0.00000428",
    "MEAN_MOTION_DDOT": "0",
    "FILE": "3973356",
    "TLE_LINE0": "0 SPOT 5",
    "TLE_LINE1": "1 27421U 02021A   23218.79569479  .00000428  00000-0  10439-3 0  9997",
    "TLE_LINE2": "2 27421  98.1364 280.3127 0132428 277.6284  80.9888 14.52708656110982",
    "OBJECT_ID": "2002-021A",
    "OBJECT_NUMBER": "27421",
    "SEMIMAJOR_AXIS": "7094.952",
    "PERIOD": "99.125",
    "APOGEE": "810.775",
    "PERIGEE": "622.860",
    "DECAYED": "0"
  },
  {
    "COMMENT": "GENERATED VIA SPACETRACK.ORG API",
    "ORIGINATOR": "18 SPCS",
    "NORAD_CAT_ID": "27421",
    "OBJECT_NAME": "SPOT 5",
    "OBJECT_TYPE": "PAYLOAD",
    "CLASSIFICATION_TYPE": "U",
    "INTLDES": "02021A",
    "EPOCH": "2023-08-07 03:21:43",
    "EPOCH_MICROSECONDS": "87392",
    "MEAN_MOTION": "14.52709001",
    "ECCENTRICITY": "0.0132431",
    "INCLINATION": "98.1363",
    "RA_OF_ASC_NODE": "280.6469",
    "ARG_OF_PERICENTER": "276.5544",
    "MEAN_ANOMALY": "82.0591",
    "EPHEMERIS_TYPE": "0",
    "ELEMENT_SET_NO": "999",
    "REV_AT_EPOCH": "11103",
    "BSTAR": "0.00010411",
    "MEAN_MOTION_DOT": "0.00000427",
    "MEAN_MOTION_DDOT": "0",
    "FILE": "3973697",
    "TLE_LINE0": "0 SPOT 5",
    "TLE_LINE1": "1 27421U 02021A   23219.14008203  .00000427  00000-0  10411-3 0  9999",
    "TLE_LINE2": "2 27421  98.1363 280.6469 0132431 276.5544  82.0591 14.52709001111030",
    "OBJECT_ID": "2002-021A",
    "OBJECT_NUMBER": "27421",
    "SEMIMAJOR_AXIS": "7094.951",
    "PERIOD": "99.125",
    "APOGEE": "810.776",
    "PERIGEE": "622.857",
    "DECAYED": "0"
  },
  {
    "COMMENT": "GENERATED VIA SPACETRACK.ORG API",
    "ORIGINATOR": "18 SPCS",
    "NORAD_CAT_ID": "27421",
    "OBJECT_NAME": "SPOT 5",
    "OBJECT_TYPE": "PAYLOAD",
    "CLASSIFICATION_TYPE": "U",
    "INTLDES": "02021A",
    "EPOCH": "2023-08-07 09:58:27",
    "EPOCH_MICROSECONDS": "128064",
    "MEAN_MOTION": "14.5270929",
    "ECCENTRICITY": "0.0132427",
    "INCLINATION": "98.1363",
    "RA_OF_ASC_NODE": "280.9143",
    "ARG_OF_PERICENTER": "275.6909",
    "MEAN_ANOMALY": "82.92",
    "EPHEMERIS_TYPE": "0",
    "ELEMENT_SET_NO": "999",
    "REV_AT_EPOCH": "11107",
    "BSTAR": "0.00010415",
    "MEAN_MOTION_DOT": "0.00000427",
    "MEAN_MOTION_DDOT": "0",
    "FILE": "3973977",
    "TLE_LINE0": "0 SPOT 5",
    "TLE_LINE1": "1 27421U 02021A   23219.41559176  .00000427  00000-0  10415-3 0  9993",
    "TLE_LINE2": "2 27421  98.1363 280.9143 0132427 275.6909  82.9200 14.52709290111072",
    "OBJECT_ID": "2002-021A",
    "OBJECT_NUMBER": "27421",
    "SEMIMAJOR_AXIS": "7094.950",
    "PERIOD": "99.125",
    "APOGEE": "810.772",
    "PERIGEE": "622.859",
    "DECAYED": "0"
  },
  {
    "COMMENT": "GENERATED VIA SPACETRACK.ORG API",
    "ORIGINATOR": "18 SPCS",
    "NORAD_CAT_ID": "27421",
    "OBJECT_NAME": "SPOT 5",
    "OBJECT_TYPE": "PAYLOAD",
    "CLASSIFICATION_TYPE": "U",
    "INTLDES": "02021A",
    "EPOCH": "2023-08-07 18:14:22",
    "EPOCH_MICROSECONDS": "183008",
    "MEAN_MOTION": "14.52709733",
    "ECCENTRICITY": "0.0132424",
    "INCLINATION": "98.1362",
    "RA_OF_ASC_NODE": "281.2485",
    "ARG_OF_PERICENTER": "274.6176",
    "MEAN_ANOMALY": "83.9906",
    "EPHEMERIS_TYPE": "0",
    "ELEMENT_SET_NO": "999",
    "REV_AT_EPOCH": "11112",
    "BSTAR": "0.00010697",
    "MEAN_MOTION_DOT": "0.0000044",
    "MEAN_MOTION_DDOT": "0",
    "FILE": "3974340",
    "TLE_LINE0": "0 SPOT 5",
    "TLE_LINE1": "1 27421U 02021A   23219.75997897  .00000440  00000-0  10697-3 0  9993",
    "TLE_LINE2": "2 27421  98.1362 281.2485 0132424 274.6176  83.9906 14.52709733111128",
    "OBJECT_ID": "2002-021A",
    "OBJECT_NUMBER": "27421",
    "SEMIMAJOR_AXIS": "7094.949",
    "PERIOD": "99.125",
    "APOGEE": "810.768",
    "PERIGEE": "622.860",
    "DECAYED": "0"
  },
  {
    "COMMENT": "GENERATED VIA SPACETRACK.ORG API",
    "ORIGINATOR": "18 SPCS",
    "NORAD_CAT_ID": "27421",
    "OBJECT_NAME": "SPOT 5",
    "OBJECT_TYPE": "PAYLOAD",
    "CLASSIFICATION_TYPE": "U",
    "INTLDES": "02021A",
    "EPOCH": "2023-08-08 02:30:17",
    "EPOCH_MICROSECONDS": "239680",
    "MEAN_MOTION": "14.52710099",
    "ECCENTRICITY": "0.0132419",
    "INCLINATION": "98.1362",
    "RA_OF_ASC_NODE": "281.5828",
    "ARG_OF_PERICENTER": "273.5439",
    "MEAN_ANOMALY": "85.062",
    "EPHEMERIS_TYPE": "0",
    "ELEMENT_SET_NO": "999",
    "REV_AT_EPOCH": "11117",
    "BSTAR": "0.00010683",
    "MEAN_MOTION_DOT": "0.0000044",
    "MEAN_MOTION_DDOT": "0",
    "FILE": "3974664",
    "TLE_LINE0": "0 SPOT 5",
    "TLE_LINE1": "1 27421U 02021A   23220.10436620  .00000440  00000-0  10683-3 0  9991",
    "TLE_LINE2": "2 27421  98.1362 281.5828 0132419 273.5439  85.0620 14.52710099111174",
    "OBJECT_ID": "2002-021A",
    "OBJECT_NUMBER": "27421",
    "SEMIMAJOR_AXIS": "7094.948",
    "PERIOD": "99.125",
    "APOGEE": "810.763",
    "PERIGEE": "622.862",
    "DECAYED": "0"
  },
  {
    "COMMENT": "GENERATED VIA SPACETRACK.ORG API",
    "ORIGINATOR": "18 SPCS",
    "NORAD_CAT_ID": "27421",
    "OBJECT_NAME": "SPOT 5",
    "OBJECT_TYPE": "PAYLOAD",
    "CLASSIFICATION_TYPE": "U",
    "INTLDES": "02021A",
    "EPOCH": "2023-08-08 10:46:12",
    "EPOCH_MICROSECONDS": "296352",
    "MEAN_MOTION": "14.52710733",
    "ECCENTRICITY": "0.0132411",
    "INCLINATION": "98.1362",
    "RA_OF_ASC_NODE": "281.917",
    "ARG_OF_PERICENTER": "272.4698",
    "MEAN_ANOMALY": "86.1345",
    "EPHEMERIS_TYPE": "0",
    "ELEMENT_SET_NO": "999",
    "REV_AT_EPOCH": "11122",
    "BSTAR": "0.00011761",
    "MEAN_MOTION_DOT": "0.00000489",
    "MEAN_MOTION_DDOT": "0",
    "FILE": "3974924",
    "TLE_LINE0": "0 SPOT 5",
    "TLE_LINE1": "1 27421U 02021A   23220.44875343  .00000489  00000-0  11761-3 0  9998",
    "TLE_LINE2": "2 27421  98.1362 281.9170 0132411 272.4698  86.1345 14.52710733111222",
    "OBJECT_ID": "2002-021A",
    "OBJECT_NUMBER": "27421",
    "SEMIMAJOR_AXIS": "7094.946",
    "PERIOD": "99.125",
    "APOGEE": "810.756",
    "PERIGEE": "622.866",
    "DECAYED": "0"
  },
  {
    "COMMENT": "GENERATED VIA SPACETRACK.ORG API",
    "ORIGINATOR": "18 SPCS",
    "NORAD_CAT_ID": "27421",
    "OBJECT_NAME": "SPOT 5",
    "OBJECT_TYPE": "PAYLOAD",
    "CLASSIFICATION_TYPE": "U",
    "INTLDES": "02021A",
    "EPOCH": "2023-08-09 03:18:02",
    "EPOCH_MICROSECONDS": "436480",
    "MEAN_MOTION": "14.52711153",
    "ECCENTRICITY": "0.0132411",
    "INCLINATION": "98.1361",
    "RA_OF_ASC_NODE": "282.5854",
    "ARG_OF_PERICENTER": "270.32",
    "MEAN_ANOMALY": "88.2825",
    "EPHEMERIS_TYPE": "0",
    "ELEMENT_SET_NO": "999",
    "REV_AT_EPOCH": "11132",
    "BSTAR": "0.0001075",
    "MEAN_MOTION_DOT": "0.00000443",
    "MEAN_MOTION_DDOT": "0",
    "FILE": "3975532",
    "TLE_LINE0": "0 SPOT 5",
    "TLE_LINE1": "1 27421U 02021A   23221.13752820  .00000443  00000-0  10750-3 0  9996",
    "TLE_LINE2": "2 27421  98.1361 282.5854 0132411 270.3200  88.2825 14.52711153111327",
    "OBJECT_ID": "2002-021A",
    "OBJECT_NUMBER": "27421",
    "SEMIMAJOR_AXIS": "7094.944",
    "PERIOD": "99.125",
    "APOGEE": "810.754",
    "PERIGEE": "622.864",
    "DECAYED": "0"
  }
]